QIANFAN-33              
1 61566U 24185Q   25364.60170335  .00000590  00000+0  41686-3 0  9990
2 61566  88.9793  76.8207 0005060 266.3731  93.6867 13.96567685 71653
QIANFAN-34              
1 61567U 24185R   25364.63657417  .00000684  00000+0  43751-3 0  9994
2 61567  88.9769  76.3565 0003275 274.1037  85.9769 14.02323790 71864
QIANFAN-35              
1 61568U 24185S   25364.63629206  .00001255  00000+0  50031-3 0  9994
2 61568  88.9794  74.7828 0005435 208.5282 151.5616 14.28002046 72734
QIANFAN-36              
1 61569U 24185T   25364.60428988  .00000215  00000+0  29198-3 0  9991
2 61569  88.9779  79.1878 0005568  10.2048 349.9218 13.55594747 70346
QIANFAN-37              
1 62238U 24232B   25364.61982284  .00000105  00000+0  14424-3 0  9997
2 62238  89.0004  39.5242 0002476  85.3160 274.8274 13.50981037101587
QIANFAN-38              
1 62239U 24232C   25364.57044123  .00000107  00000+0  14659-3 0  9996
2 62239  89.0010  39.4461 0016012 138.7418 221.4947 13.50978779101637
QIANFAN-39              
1 62240U 24232D   25364.60556511  .00000470  00000+0  19311-3 0  9994
2 62240  89.0001  35.2652 0016945  28.0071 332.2030 14.25404550103939
QIANFAN-40              
1 62241U 24232E   25364.60335889  .00000099  00000+0  13465-3 0  9999
2 62241  89.0038  39.0322 0014847 145.5454 214.6663 13.50978774102008
